{
  "type": "FeatureCollection",
  "features": [
    {
      "type": "Feature",
      "properties": {
        "norad_id": 59600,
        "name": "GSAT0227 (GALILEO 30)",
        "group": "gnss",
        "lat": -31.601715729776352,
        "lon": -48.188084030084596,
        "alt_km": 23228.652422966217,
        "timestamp": "2025-12-12T05:47:29.015013+00:00",
        "meta_object_name": "GSAT0227 (GALILEO 30)",
        "meta_object_id": "2024-079C",
        "meta_epoch": "2025-12-08T22:48:42.234912",
        "meta_mean_motion": 1.70474719,
        "meta_eccentricity": 0.0003262,
        "meta_inclination": 54.9946,
        "meta_ra_of_asc_node": 106.4003,
        "meta_arg_of_pericenter": 114.182,
        "meta_mean_anomaly": 245.816,
        "meta_ephemeris_type": 0,
        "meta_classification_type": "U",
        "meta_norad_cat_id": 59600,
        "meta_element_set_no": 999,
        "meta_rev_at_epoch": 1012,
        "meta_bstar": 0,
        "meta_mean_motion_dot": 9e-08,
        "meta_mean_motion_ddot": 0,
        "tle_line1": "1 59600U 24079C   25342.95048883  .00000009  00000+0  00000+0 0  9990",
        "tle_line2": "2 59600  54.9946 106.4003 0003262 114.1820 245.8160  1.70474719 10123"
      },
      "geometry": {
        "type": "Point",
        "coordinates": [
          -48.188084030084596,
          -31.601715729776352
        ]
      }
    },
    {
      "type": "Feature",
      "properties": {
        "norad_id": 61182,
        "name": "GSAT0232 (GALILEO 32)",
        "group": "gnss",
        "lat": 41.73831474377317,
        "lon": -95.30815855093378,
        "alt_km": 23222.632701958708,
        "timestamp": "2025-12-12T05:47:29.015025+00:00",
        "meta_object_name": "GSAT0232 (GALILEO 32)",
        "meta_object_id": "2024-167A",
        "meta_epoch": "2025-12-11T07:24:23.319072",
        "meta_mean_motion": 1.70473458,
        "meta_eccentricity": 0.00019759,
        "meta_inclination": 55.2412,
        "meta_ra_of_asc_node": 226.4699,
        "meta_arg_of_pericenter": 212.0591,
        "meta_mean_anomaly": 349.7178,
        "meta_ephemeris_type": 0,
        "meta_classification_type": "U",
        "meta_norad_cat_id": 61182,
        "meta_element_set_no": 999,
        "meta_rev_at_epoch": 767,
        "meta_bstar": 0,
        "meta_mean_motion_dot": 1.1e-07,
        "meta_mean_motion_ddot": 0,
        "tle_line1": "1 61182U 24167A   25345.30860323  .00000011  00000+0  00000+0 0  9992",
        "tle_line2": "2 61182  55.2412 226.4699 0001975 212.0591 349.7178  1.70473458  7677"
      },
      "geometry": {
        "type": "Point",
        "coordinates": [
          -95.30815855093378,
          41.73831474377317
        ]
      }
    },
    {
      "type": "Feature",
      "properties": {
        "norad_id": 61183,
        "name": "GSAT0226 (GALILEO 31)",
        "group": "gnss",
        "lat": 10.789149907392511,
        "lon": 38.8594999790843,
        "alt_km": 23219.496640337118,
        "timestamp": "2025-12-12T05:47:29.015036+00:00",
        "meta_object_name": "GSAT0226 (GALILEO 31)",
        "meta_object_id": "2024-167B",
        "meta_epoch": "2025-12-09T21:57:08.318304",
        "meta_mean_motion": 1.70473488,
        "meta_eccentricity": 8.079e-05,
        "meta_inclination": 55.2402,
        "meta_ra_of_asc_node": 226.5136,
        "meta_arg_of_pericenter": 118.4795,
        "meta_mean_anomaly": 60.4734,
        "meta_ephemeris_type": 0,
        "meta_classification_type": "U",
        "meta_norad_cat_id": 61183,
        "meta_element_set_no": 999,
        "meta_rev_at_epoch": 762,
        "meta_bstar": 0,
        "meta_mean_motion_dot": 1e-07,
        "meta_mean_motion_ddot": 0,
        "tle_line1": "1 61183U 24167B   25343.91467961  .00000010  00000+0  00000+0 0  9998",
        "tle_line2": "2 61183  55.2402 226.5136 0000807 118.4795  60.4734  1.70473488  7625"
      },
      "geometry": {
        "type": "Point",
        "coordinates": [
          38.8594999790843,
          10.789149907392511
        ]
      }
    },
    {
      "type": "Feature",
      "properties": {
        "norad_id": 61186,
        "name": "BEIDOU-3 M25 (C47)",
        "group": "gnss",
        "lat": 44.53275128281889,
        "lon": 84.4458394850223,
        "alt_km": 21537.930172035176,
        "timestamp": "2025-12-12T05:47:29.015047+00:00",
        "meta_object_name": "BEIDOU-3 M25 (C47)",
        "meta_object_id": "2024-168B",
        "meta_epoch": "2025-12-09T12:38:32.089056",
        "meta_mean_motion": 1.86229941,
        "meta_eccentricity": 0.0005432,
        "meta_inclination": 54.6447,
        "meta_ra_of_asc_node": 308.8306,
        "meta_arg_of_pericenter": 296.174,
        "meta_mean_anomaly": 164.5169,
        "meta_ephemeris_type": 0,
        "meta_classification_type": "U",
        "meta_norad_cat_id": 61186,
        "meta_element_set_no": 999,
        "meta_rev_at_epoch": 825,
        "meta_bstar": 0,
        "meta_mean_motion_dot": -7.8e-07,
        "meta_mean_motion_ddot": 0,
        "tle_line1": "1 61186U 24168B   25343.52676029 -.00000078  00000+0  00000+0 0  9991",
        "tle_line2": "2 61186  54.6447 308.8306 0005432 296.1740 164.5169  1.86229941  8254"
      },
      "geometry": {
        "type": "Point",
        "coordinates": [
          84.4458394850223,
          44.53275128281889
        ]
      }
    },
    {
      "type": "Feature",
      "properties": {
        "norad_id": 61187,
        "name": "BEIDOU-3 M27 (C49)",
        "group": "gnss",
        "lat": -52.17683901036677,
        "lon": -165.21146928722814,
        "alt_km": 21532.611705674004,
        "timestamp": "2025-12-12T05:47:29.015061+00:00",
        "meta_object_name": "BEIDOU-3 M27 (C49)",
        "meta_object_id": "2024-168C",
        "meta_epoch": "2025-12-10T08:23:50.553888",
        "meta_mean_motion": 1.86230151,
        "meta_eccentricity": 0.00023508,
        "meta_inclination": 54.6394,
        "meta_ra_of_asc_node": 308.7857,
        "meta_arg_of_pericenter": 335.0567,
        "meta_mean_anomaly": 92.4403,
        "meta_ephemeris_type": 0,
        "meta_classification_type": "U",
        "meta_norad_cat_id": 61187,
        "meta_element_set_no": 999,
        "meta_rev_at_epoch": 574,
        "meta_bstar": 0,
        "meta_mean_motion_dot": -8.2e-07,
        "meta_mean_motion_ddot": 0,
        "tle_line1": "1 61187U 24168C   25344.34989067 -.00000082  00000+0  00000+0 0  9997",
        "tle_line2": "2 61187  54.6394 308.7857 0002350 335.0567  92.4403  1.86230151  5748"
      },
      "geometry": {
        "type": "Point",
        "coordinates": [
          -165.21146928722814,
          -52.17683901036677
        ]
      }
    },
    {
      "type": "Feature",
      "properties": {
        "norad_id": 62339,
        "name": "GPS BIII-7  (PRN 01)",
        "group": "gnss",
        "lat": -53.82404853296527,
        "lon": -124.3431727884548,
        "alt_km": 20184.081428096586,
        "timestamp": "2025-12-12T05:47:29.015074+00:00",
        "meta_object_name": "GPS BIII-7  (PRN 01)",
        "meta_object_id": "2024-242A",
        "meta_epoch": "2025-12-10T14:03:42.090048",
        "meta_mean_motion": 2.00567746,
        "meta_eccentricity": 0.0012131,
        "meta_inclination": 54.9242,
        "meta_ra_of_asc_node": 341.8267,
        "meta_arg_of_pericenter": 344.331,
        "meta_mean_anomaly": 161.0631,
        "meta_ephemeris_type": 0,
        "meta_classification_type": "U",
        "meta_norad_cat_id": 62339,
        "meta_element_set_no": 999,
        "meta_rev_at_epoch": 747,
        "meta_bstar": 0,
        "meta_mean_motion_dot": -9e-07,
        "meta_mean_motion_ddot": 0,
        "tle_line1": "1 62339U 24242A   25344.58590382 -.00000090  00000+0  00000+0 0  9993",
        "tle_line2": "2 62339  54.9242 341.8267 0012131 344.3310 161.0631  2.00567746  7471"
      },
      "geometry": {
        "type": "Point",
        "coordinates": [
          -124.3431727884548,
          -53.82404853296527
        ]
      }
    },
    {
      "type": "Feature",
      "properties": {
        "norad_id": 62850,
        "name": "NVS-02 (IRNSS-1K)",
        "group": "gnss",
        "lat": -3.8464913703389776,
        "lon": 157.92862848252557,
        "alt_km": 33416.72371252824,
        "timestamp": "2025-12-12T05:47:29.015086+00:00",
        "meta_object_name": "NVS-02 (IRNSS-1K)",
        "meta_object_id": "2025-020A",
        "meta_epoch": "2025-12-11T15:05:49.977024",
        "meta_mean_motion": 2.17593263,
        "meta_eccentricity": 0.73479581,
        "meta_inclination": 20.9861,
        "meta_ra_of_asc_node": 328.0619,
        "meta_arg_of_pericenter": 25.5119,
        "meta_mean_anomaly": 357.3042,
        "meta_ephemeris_type": 0,
        "meta_classification_type": "U",
        "meta_norad_cat_id": 62850,
        "meta_element_set_no": 999,
        "meta_rev_at_epoch": 689,
        "meta_bstar": 0.00037407092,
        "meta_mean_motion_dot": 3.2e-06,
        "meta_mean_motion_ddot": 0,
        "tle_line1": "1 62850U 25020A   25345.62905066  .00000320  00000+0  37407-3 0  9991",
        "tle_line2": "2 62850  20.9861 328.0619 7347958  25.5119 357.3042  2.17593263  6899"
      },
      "geometry": {
        "type": "Point",
        "coordinates": [
          157.92862848252557,
          -3.8464913703389776
        ]
      }
    }
  ]
}